[{"OBJECT_NAME":"STARLINK-31540","OBJECT_ID":"2024-074J","EPOCH":"2026-03-09T03:30:32.001408","MEAN_MOTION":15.27607513,"ECCENTRICITY":0.00014766,"INCLINATION":43.005,"RA_OF_ASC_NODE":346.3865,"ARG_OF_PERICENTER":292.6506,"MEAN_ANOMALY":67.4189,"EPHEMERIS_TYPE":0,"CLASSIFICATION_TYPE":"U","NORAD_CAT_ID":59542,"ELEMENT_SET_NO":999,"REV_AT_EPOCH":10593,"BSTAR":0.00011655886,"MEAN_MOTION_DOT":2.949e-5,"MEAN_MOTION_DDOT":0},{"OBJECT_NAME":"SL-3 DEB","OBJECT_ID":"1988-032D","EPOCH":"2026-03-09T21:36:49.536576","MEAN_MOTION":15.21301321,"ECCENTRICITY":0.00302448,"INCLINATION":97.5102,"RA_OF_ASC_NODE":52.3226,"ARG_OF_PERICENTER":221.5268,"MEAN_ANOMALY":138.367,"EPHEMERIS_TYPE":0,"CLASSIFICATION_TYPE":"U","NORAD_CAT_ID":25655,"ELEMENT_SET_NO":999,"REV_AT_EPOCH":5124,"BSTAR":0.00031081119,"MEAN_MOTION_DOT":6.967e-5,"MEAN_MOTION_DDOT":0}]
